{"type": "FeatureCollection", "features": [ {"type": "Feature", "properties": {"norad_id": 41335, "name": "SENTINEL-3A", "group": "resource", "lat": -5.954311504695212, "lon": 44.84786664425451, "alt_km": 806.3786769304388, "timestamp": "2025-12-04T19:33:59.288660+00:00", "meta": {"OBJECT_NAME": "SENTINEL-3A", "OBJECT_ID": "2016-011A", "EPOCH": "2025-12-04T06:07:47.048160", "MEAN_MOTION": 14.26741743, "ECCENTRICITY": 9.81e-05, "INCLINATION": 98.6218, "RA_OF_ASC_NODE": 43.3897, "ARG_OF_PERICENTER": 91.2597, "MEAN_ANOMALY": 268.8695, "EPHEMERIS_TYPE": 0, "CLASSIFICATION_TYPE": "U", "NORAD_CAT_ID": 41335, "ELEMENT_SET_NO": 999, "REV_AT_EPOCH": 51026, "BSTAR": 0.00015566242, "MEAN_MOTION_DOT": 3.33e-06, "MEAN_MOTION_DDOT": 0}, "tle": {"line1": "1 41335U 16011A   25338.25540565  .00000333  00000+0  15566-3 0  9992", "line2": "2 41335  98.6218  43.3897 0000981  91.2597 268.8695 14.26741743510264"}}, "geometry": {"type": "Point", "coordinates": [44.84786664425451, -5.954311504695212]}}, {"type": "Feature", "properties": {"norad_id": 41556, "name": "ZIYUAN 3-2 (ZY 3-2)", "group": "resource", "lat": -69.1955023933309, "lon": 73.13288050446023, "alt_km": 500.65595279151603, "timestamp": "2025-12-04T19:33:59.288669+00:00", "meta": {"OBJECT_NAME": "ZIYUAN 3-2 (ZY 3-2)", "OBJECT_ID": "2016-033A", "EPOCH": "2025-12-04T07:14:48.403104", "MEAN_MOTION": 15.21312826, "ECCENTRICITY": 0.00124661, "INCLINATION": 97.406, "RA_OF_ASC_NODE": 52.6083, "ARG_OF_PERICENTER": 282.0849, "MEAN_ANOMALY": 77.899, "EPHEMERIS_TYPE": 0, "CLASSIFICATION_TYPE": "U", "NORAD_CAT_ID": 41556, "ELEMENT_SET_NO": 999, "REV_AT_EPOCH": 52835, "BSTAR": 0.00075332793, "MEAN_MOTION_DOT": 0.00016847, "MEAN_MOTION_DDOT": 0}, "tle": {"line1": "1 41556U 16033A   25338.30194911  .00016847  00000+0  75333-3 0  9992", "line2": "2 41556  97.4060  52.6083 0012466 282.0849  77.8990 15.21312826528359"}}, "geometry": {"type": "Point", "coordinates": [73.13288050446023, -69.1955023933309]}}, {"type": "Feature", "properties": {"norad_id": 41599, "name": "CARTOSAT-2C", "group": "resource", "lat": -63.566432841515116, "lon": 51.46711324386495, "alt_km": 522.2674139009905, "timestamp": "2025-12-04T19:33:59.288678+00:00", "meta": {"OBJECT_NAME": "CARTOSAT-2C", "OBJECT_ID": "2016-040A", "EPOCH": "2025-12-04T15:06:29.580192", "MEAN_MOTION": 15.19186506, "ECCENTRICITY": 0.0010994, "INCLINATION": 97.4778, "RA_OF_ASC_NODE": 35.963, "ARG_OF_PERICENTER": 89.2559, "MEAN_ANOMALY": 270.9935, "EPHEMERIS_TYPE": 0, "CLASSIFICATION_TYPE": "U", "NORAD_CAT_ID": 41599, "ELEMENT_SET_NO": 999, "REV_AT_EPOCH": 52417, "BSTAR": 0.00053277, "MEAN_MOTION_DOT": 0.00011165, "MEAN_MOTION_DDOT": 0}, "tle": {"line1": "1 41599U 16040A   25338.62950903  .00011165  00000+0  53277-3 0  9994", "line2": "2 41599  97.4778  35.9630 0010994  89.2559 270.9935 15.19186506524175"}}, "geometry": {"type": "Point", "coordinates": [51.46711324386495, -63.566432841515116]}}, {"type": "Feature", "properties": {"norad_id": 41601, "name": "SKYSAT-C1", "group": "resource", "lat": -26.246174830130123, "lon": 19.742332813603817, "alt_km": 473.4499094428338, "timestamp": "2025-12-04T19:33:59.288687+00:00", "meta": {"OBJECT_NAME": "SKYSAT-C1", "OBJECT_ID": "2016-040C", "EPOCH": "2025-12-04T02:26:31.439328", "MEAN_MOTION": 15.32346944, "ECCENTRICITY": 0.00032533, "INCLINATION": 96.9835, "RA_OF_ASC_NODE": 15.6041, "ARG_OF_PERICENTER": 37.1796, "MEAN_ANOMALY": 322.9672, "EPHEMERIS_TYPE": 0, "CLASSIFICATION_TYPE": "U", "NORAD_CAT_ID": 41601, "ELEMENT_SET_NO": 999, "REV_AT_EPOCH": 52795, "BSTAR": 0.0005787092, "MEAN_MOTION_DOT": 0.00018027, "MEAN_MOTION_DDOT": 0}, "tle": {"line1": "1 41601U 16040C   25338.10175277  .00018027  00000+0  57871-3 0  9992", "line2": "2 41601  96.9835  15.6041 0003253  37.1796 322.9672 15.32346944527957"}}, "geometry": {"type": "Point", "coordinates": [19.742332813603817, -26.246174830130123]}}, {"type": "Feature", "properties": {"norad_id": 41603, "name": "LAPAN-A3", "group": "resource", "lat": 34.336369243146706, "lon": 161.57426960427753, "alt_km": 475.1244084759337, "timestamp": "2025-12-04T19:33:59.288697+00:00", "meta": {"OBJECT_NAME": "LAPAN-A3", "OBJECT_ID": "2016-040E", "EPOCH": "2025-12-04T07:57:27.091584", "MEAN_MOTION": 15.31448849, "ECCENTRICITY": 0.00107194, "INCLINATION": 97.1419, "RA_OF_ASC_NODE": 336.1948, "ARG_OF_PERICENTER": 4.9729, "MEAN_ANOMALY": 355.1617, "EPHEMERIS_TYPE": 0, "CLASSIFICATION_TYPE": "U", "NORAD_CAT_ID": 41603, "ELEMENT_SET_NO": 999, "REV_AT_EPOCH": 52497, "BSTAR": 0.00026453881, "MEAN_MOTION_DOT": 7.974e-05, "MEAN_MOTION_DDOT": 0}, "tle": {"line1": "1 41603U 16040E   25338.33156356  .00007974  00000+0  26454-3 0  9998", "line2": "2 41603  97.1419 336.1948 0010719   4.9729 355.1617 15.31448849524972"}}, "geometry": {"type": "Point", "coordinates": [161.57426960427753, 34.336369243146706]}}, {"type": "Feature", "properties": {"norad_id": 41604, "name": "BIROS", "group": "resource", "lat": 22.140520105119396, "lon": -167.1548542607951, "alt_km": 310.23266834513015, "timestamp": "2025-12-04T19:33:59.288706+00:00", "meta": {"OBJECT_NAME": "BIROS", "OBJECT_ID": "2016-040F", "EPOCH": "2025-12-04T02:15:02.135808", "MEAN_MOTION": 15.86156799, "ECCENTRICITY": 0.00027833, "INCLINATION": 97.0702, "RA_OF_ASC_NODE": 9.2033, "ARG_OF_PERICENTER": 169.6372, "MEAN_ANOMALY": 190.4958, "EPHEMERIS_TYPE": 0, "CLASSIFICATION_TYPE": "U", "NORAD_CAT_ID": 41604, "ELEMENT_SET_NO": 999, "REV_AT_EPOCH": 52735, "BSTAR": 0.00085334351, "MEAN_MOTION_DOT": 0.00215032, "MEAN_MOTION_DDOT": 0}, "tle": {"line1": "1 41604U 16040F   25338.09377472  .00215032  00000+0  85334-3 0  9994", "line2": "2 41604  97.0702   9.2033 0002783 169.6372 190.4958 15.86156799527358"}}, "geometry": {"type": "Point", "coordinates": [-167.1548542607951, 22.140520105119396]}}, {"type": "Feature", "properties": {"norad_id": 41727, "name": "GAOFEN-3", "group": "resource", "lat": -53.95953202650008, "lon": -3.754751380216115, "alt_km": 758.8529480900133, "timestamp": "2025-12-04T19:33:59.288727+00:00", "meta": {"OBJECT_NAME": "GAOFEN-3", "OBJECT_ID": "2016-049A", "EPOCH": "2025-12-04T08:09:52.951680", "MEAN_MOTION": 14.42209931, "ECCENTRICITY": 0.00015763, "INCLINATION": 98.4041, "RA_OF_ASC_NODE": 344.0546, "ARG_OF_PERICENTER": 72.4496, "MEAN_ANOMALY": 287.6866, "EPHEMERIS_TYPE": 0, "CLASSIFICATION_TYPE": "U", "NORAD_CAT_ID": 41727, "ELEMENT_SET_NO": 999, "REV_AT_EPOCH": 49056, "BSTAR": 3.631629e-06, "MEAN_MOTION_DOT": -3.1e-07, "MEAN_MOTION_DDOT": 0}, "tle": {"line1": "1 41727U 16049A   25338.34019620 -.00000031  00000+0  36316-5 0  9995", "line2": "2 41727  98.4041 344.0546 0001576  72.4496 287.6866 14.42209931490568"}}, "geometry": {"type": "Point", "coordinates": [-3.754751380216115, -53.95953202650008]}}, {"type": "Feature", "properties": {"norad_id": 41771, "name": "SKYSAT-C4", "group": "resource", "lat": -4.5744689836814, "lon": 4.949016364751827, "alt_km": 444.45690977877894, "timestamp": "2025-12-04T19:33:59.288737+00:00", "meta": {"OBJECT_NAME": "SKYSAT-C4", "OBJECT_ID": "2016-058B", "EPOCH": "2025-12-04T00:53:44.550816", "MEAN_MOTION": 15.41868582, "ECCENTRICITY": 7.615e-05, "INCLINATION": 96.938, "RA_OF_ASC_NODE": 3.6509, "ARG_OF_PERICENTER": 119.4734, "MEAN_ANOMALY": 240.659, "EPHEMERIS_TYPE": 0, "CLASSIFICATION_TYPE": "U", "NORAD_CAT_ID": 41771, "ELEMENT_SET_NO": 999, "REV_AT_EPOCH": 51533, "BSTAR": 0.00060994828, "MEAN_MOTION_DOT": 0.00025858, "MEAN_MOTION_DDOT": 0}, "tle": {"line1": "1 41771U 16058B   25338.03732119  .00025858  00000+0  60995-3 0  9996", "line2": "2 41771  96.9380   3.6509 0000761 119.4734 240.6590 15.41868582515334"}}, "geometry": {"type": "Point", "coordinates": [4.949016364751827, -4.5744689836814]}}, {"type": "Feature", "properties": {"norad_id": 41772, "name": "SKYSAT-C5", "group": "resource", "lat": 75.64785644448264, "lon": -128.0741093625958, "alt_km": 450.225963039371, "timestamp": "2025-12-04T19:33:59.288751+00:00", "meta": {"OBJECT_NAME": "SKYSAT-C5", "OBJECT_ID": "2016-058C", "EPOCH": "2025-12-04T01:55:03.026496", "MEAN_MOTION": 15.35427331, "ECCENTRICITY": 0.00029032, "INCLINATION": 97.0762, "RA_OF_ASC_NODE": 22.1744, "ARG_OF_PERICENTER": 128.7771, "MEAN_ANOMALY": 231.3733, "EPHEMERIS_TYPE": 0, "CLASSIFICATION_TYPE": "U", "NORAD_CAT_ID": 41772, "ELEMENT_SET_NO": 999, "REV_AT_EPOCH": 51383, "BSTAR": 0.0030293433, "MEAN_MOTION_DOT": 0.00105513, "MEAN_MOTION_DDOT": 0}, "tle": {"line1": "1 41772U 16058C   25338.07989614  .00105513  00000+0  30293-2 0  9999", "line2": "2 41772  97.0762  22.1744 0002903 128.7771 231.3733 15.35427331513837"}}, "geometry": {"type": "Point", "coordinates": [-128.0741093625958, 75.64785644448264]}}, {"type": "Feature", "properties": {"norad_id": 41773, "name": "SKYSAT-C2", "group": "resource", "lat": 60.19833579168327, "lon": -8.77468095359116, "alt_km": 445.7697130717879, "timestamp": "2025-12-04T19:33:59.288761+00:00", "meta": {"OBJECT_NAME": "SKYSAT-C2", "OBJECT_ID": "2016-058D", "EPOCH": "2025-12-04T00:33:07.667424", "MEAN_MOTION": 15.3696681, "ECCENTRICITY": 0.00050471, "INCLINATION": 97.0367, "RA_OF_ASC_NODE": 2.9215, "ARG_OF_PERICENTER": 56.6166, "MEAN_ANOMALY": 303.5562, "EPHEMERIS_TYPE": 0, "CLASSIFICATION_TYPE": "U", "NORAD_CAT_ID": 41773, "ELEMENT_SET_NO": 999, "REV_AT_EPOCH": 51502, "BSTAR": 0.00059241602, "MEAN_MOTION_DOT": 0.00021384, "MEAN_MOTION_DDOT": 0}, "tle": {"line1": "1 41773U 16058D   25338.02300541  .00021384  00000+0  59242-3 0  9990", "line2": "2 41773  97.0367   2.9215 0005047  56.6166 303.5562 15.36966810515023"}}, "geometry": {"type": "Point", "coordinates": [-8.77468095359116, 60.19833579168327]}}]}